{"type": "FeatureCollection", "features": [ {"type": "Feature", "properties": {"norad_id": 38755, "name": "SPOT 6", "group": "resource", "lat": 75.61933813070434, "lon": 11.65799928120631, "alt_km": 689.8355617711113, "timestamp": "2025-12-06T18:50:09.827739+00:00", "meta": {"OBJECT_NAME": "SPOT 6", "OBJECT_ID": "2012-047A", "EPOCH": "2025-12-06T06:57:16.207488", "MEAN_MOTION": 14.58594278, "ECCENTRICITY": 0.00010652, "INCLINATION": 98.1582, "RA_OF_ASC_NODE": 45.1928, "ARG_OF_PERICENTER": 101.4936, "MEAN_ANOMALY": 258.6383, "EPHEMERIS_TYPE": 0, "CLASSIFICATION_TYPE": "U", "NORAD_CAT_ID": 38755, "ELEMENT_SET_NO": 999, "REV_AT_EPOCH": 70493, "BSTAR": 0.00020020397, "MEAN_MOTION_DOT": 8.86e-06, "MEAN_MOTION_DDOT": 0}, "tle": {"line1": "1 38755U 12047A   25340.28977092  .00000886  00000+0  20020-3 0  9998", "line2": "2 38755  98.1582  45.1928 0001065 101.4936 258.6383 14.58594278704939"}}, "geometry": {"type": "Point", "coordinates": [11.65799928120631, 75.61933813070434]}}, {"type": "Feature", "properties": {"norad_id": 39019, "name": "PLEIADES 1B", "group": "resource", "lat": -22.11282782121421, "lon": 56.881149679960096, "alt_km": 703.4988218889685, "timestamp": "2025-12-06T18:50:09.827749+00:00", "meta": {"OBJECT_NAME": "PLEIADES 1B", "OBJECT_ID": "2012-068A", "EPOCH": "2025-12-06T05:46:00.110784", "MEAN_MOTION": 14.58543573, "ECCENTRICITY": 0.00012248, "INCLINATION": 98.1803, "RA_OF_ASC_NODE": 52.9945, "ARG_OF_PERICENTER": 87.0209, "MEAN_ANOMALY": 273.1131, "EPHEMERIS_TYPE": 0, "CLASSIFICATION_TYPE": "U", "NORAD_CAT_ID": 39019, "ELEMENT_SET_NO": 999, "REV_AT_EPOCH": 69272, "BSTAR": 0.00020588618, "MEAN_MOTION_DOT": 9.11e-06, "MEAN_MOTION_DDOT": 0}, "tle": {"line1": "1 39019U 12068A   25340.24027906  .00000911  00000+0  20589-3 0  9990", "line2": "2 39019  98.1803  52.9945 0001224  87.0209 273.1131 14.58543573692721"}}, "geometry": {"type": "Point", "coordinates": [56.881149679960096, -22.11282782121421]}}, {"type": "Feature", "properties": {"norad_id": 39030, "name": "GOKTURK 2", "group": "resource", "lat": -15.069830359808781, "lon": 0.6460000398099673, "alt_km": 649.0880954764953, "timestamp": "2025-12-06T18:50:09.827759+00:00", "meta": {"OBJECT_NAME": "GOKTURK 2", "OBJECT_ID": "2012-073A", "EPOCH": "2025-12-06T04:55:55.670016", "MEAN_MOTION": 14.75277595, "ECCENTRICITY": 8.513e-05, "INCLINATION": 97.6905, "RA_OF_ASC_NODE": 182.1804, "ARG_OF_PERICENTER": 100.4617, "MEAN_ANOMALY": 259.6689, "EPHEMERIS_TYPE": 0, "CLASSIFICATION_TYPE": "U", "NORAD_CAT_ID": 39030, "ELEMENT_SET_NO": 999, "REV_AT_EPOCH": 69605, "BSTAR": 0.00019369999, "MEAN_MOTION_DOT": 1.264e-05, "MEAN_MOTION_DDOT": 0}, "tle": {"line1": "1 39030U 12073A   25340.20550544  .00001264  00000+0  19370-3 0  9992", "line2": "2 39030  97.6905 182.1804 0000851 100.4617 259.6689 14.75277595696053"}}, "geometry": {"type": "Point", "coordinates": [0.6460000398099673, -15.069830359808781]}}, {"type": "Feature", "properties": {"norad_id": 39084, "name": "LANDSAT 8", "group": "resource", "lat": 1.2559595538937827, "lon": -130.87265224120074, "alt_km": 705.4125178292388, "timestamp": "2025-12-06T18:50:09.827770+00:00", "meta": {"OBJECT_NAME": "LANDSAT 8", "OBJECT_ID": "2013-008A", "EPOCH": "2025-12-06T06:28:57.054720", "MEAN_MOTION": 14.57104571, "ECCENTRICITY": 0.00011484, "INCLINATION": 98.208, "RA_OF_ASC_NODE": 48.4389, "ARG_OF_PERICENTER": 85.8578, "MEAN_ANOMALY": 274.2752, "EPHEMERIS_TYPE": 0, "CLASSIFICATION_TYPE": "U", "NORAD_CAT_ID": 39084, "ELEMENT_SET_NO": 999, "REV_AT_EPOCH": 66980, "BSTAR": 0.00020335798, "MEAN_MOTION_DOT": 8.71e-06, "MEAN_MOTION_DDOT": 0}, "tle": {"line1": "1 39084U 13008A   25340.27010480  .00000871  00000+0  20336-3 0  9994", "line2": "2 39084  98.2080  48.4389 0001148  85.8578 274.2752 14.57104571669807"}}, "geometry": {"type": "Point", "coordinates": [-130.87265224120074, 1.2559595538937827]}}, {"type": "Feature", "properties": {"norad_id": 39086, "name": "SARAL", "group": "resource", "lat": -34.17637756906234, "lon": 170.6560570177042, "alt_km": 790.4611786518699, "timestamp": "2025-12-06T18:50:09.827780+00:00", "meta": {"OBJECT_NAME": "SARAL", "OBJECT_ID": "2013-009A", "EPOCH": "2025-12-06T07:15:53.867520", "MEAN_MOTION": 14.32753711, "ECCENTRICITY": 0.00027163, "INCLINATION": 98.5506, "RA_OF_ASC_NODE": 164.3171, "ARG_OF_PERICENTER": 120.9784, "MEAN_ANOMALY": 239.1668, "EPHEMERIS_TYPE": 0, "CLASSIFICATION_TYPE": "U", "NORAD_CAT_ID": 39086, "ELEMENT_SET_NO": 999, "REV_AT_EPOCH": 66798, "BSTAR": 0.00011818119, "MEAN_MOTION_DOT": 2.78e-06, "MEAN_MOTION_DDOT": 0}, "tle": {"line1": "1 39086U 13009A   25340.30270680  .00000278  00000+0  11818-3 0  9997", "line2": "2 39086  98.5506 164.3171 0002716 120.9784 239.1668 14.32753711667986"}}, "geometry": {"type": "Point", "coordinates": [170.6560570177042, -34.17637756906234]}}, {"type": "Feature", "properties": {"norad_id": 39150, "name": "GAOFEN-1", "group": "resource", "lat": -65.42909240767364, "lon": -146.20878284829504, "alt_km": 646.4531602183615, "timestamp": "2025-12-06T18:50:09.827790+00:00", "meta": {"OBJECT_NAME": "GAOFEN-1", "OBJECT_ID": "2013-018A", "EPOCH": "2025-12-06T07:57:54.059616", "MEAN_MOTION": 14.76517201, "ECCENTRICITY": 0.0017847, "INCLINATION": 97.9335, "RA_OF_ASC_NODE": 51.1042, "ARG_OF_PERICENTER": 163.0719, "MEAN_ANOMALY": 197.109, "EPHEMERIS_TYPE": 0, "CLASSIFICATION_TYPE": "U", "NORAD_CAT_ID": 39150, "ELEMENT_SET_NO": 999, "REV_AT_EPOCH": 67978, "BSTAR": 0.00024790819, "MEAN_MOTION_DOT": 1.681e-05, "MEAN_MOTION_DDOT": 0}, "tle": {"line1": "1 39150U 13018A   25340.33187569  .00001681  00000+0  24791-3 0  9998", "line2": "2 39150  97.9335  51.1042 0017847 163.0719 197.1090 14.76517201679781"}}, "geometry": {"type": "Point", "coordinates": [-146.20878284829504, -65.42909240767364]}}, {"type": "Feature", "properties": {"norad_id": 39160, "name": "VNREDSAT 1", "group": "resource", "lat": -17.410430030665093, "lon": -146.23945692971446, "alt_km": 682.7350628163522, "timestamp": "2025-12-06T18:50:09.827800+00:00", "meta": {"OBJECT_NAME": "VNREDSAT 1", "OBJECT_ID": "2013-021B", "EPOCH": "2025-12-06T06:27:44.561664", "MEAN_MOTION": 14.649084, "ECCENTRICITY": 0.00013307, "INCLINATION": 97.9382, "RA_OF_ASC_NODE": 35.7708, "ARG_OF_PERICENTER": 83.1402, "MEAN_ANOMALY": 276.9953, "EPHEMERIS_TYPE": 0, "CLASSIFICATION_TYPE": "U", "NORAD_CAT_ID": 39160, "ELEMENT_SET_NO": 999, "REV_AT_EPOCH": 67204, "BSTAR": 0.00027544968, "MEAN_MOTION_DOT": 1.427e-05, "MEAN_MOTION_DDOT": 0}, "tle": {"line1": "1 39160U 13021B   25340.26926576  .00001427  00000+0  27545-3 0  9992", "line2": "2 39160  97.9382  35.7708 0001330  83.1402 276.9953 14.64908400672040"}}, "geometry": {"type": "Point", "coordinates": [-146.23945692971446, -17.410430030665093]}}, {"type": "Feature", "properties": {"norad_id": 39227, "name": "ARIRANG-5 (KOMPSAT-5)", "group": "resource", "lat": 31.025736072911673, "lon": -10.210348936463099, "alt_km": 550.6282078595568, "timestamp": "2025-12-06T18:50:09.827811+00:00", "meta": {"OBJECT_NAME": "ARIRANG-5 (KOMPSAT-5)", "OBJECT_ID": "2013-042A", "EPOCH": "2025-12-06T05:24:31.437504", "MEAN_MOTION": 15.04519693, "ECCENTRICITY": 0.0004024, "INCLINATION": 97.6152, "RA_OF_ASC_NODE": 164.6227, "ARG_OF_PERICENTER": 75.1174, "MEAN_ANOMALY": 285.0498, "EPHEMERIS_TYPE": 0, "CLASSIFICATION_TYPE": "U", "NORAD_CAT_ID": 39227, "ELEMENT_SET_NO": 999, "REV_AT_EPOCH": 67484, "BSTAR": 0.00021672948, "MEAN_MOTION_DOT": 2.975e-05, "MEAN_MOTION_DDOT": 0}, "tle": {"line1": "1 39227U 13042A   25340.22536386  .00002975  00000+0  21673-3 0  9996", "line2": "2 39227  97.6152 164.6227 0004024  75.1174 285.0498 15.04519693674846"}}, "geometry": {"type": "Point", "coordinates": [-10.210348936463099, 31.025736072911673]}}, {"type": "Feature", "properties": {"norad_id": 39418, "name": "SKYSAT-A", "group": "resource", "lat": 10.486023956873598, "lon": 29.794233687980356, "alt_km": 538.397038713546, "timestamp": "2025-12-06T18:50:09.827821+00:00", "meta": {"OBJECT_NAME": "SKYSAT-A", "OBJECT_ID": "2013-066C", "EPOCH": "2025-12-06T02:54:04.842432", "MEAN_MOTION": 15.11528504, "ECCENTRICITY": 0.00204924, "INCLINATION": 97.4114, "RA_OF_ASC_NODE": 30.531, "ARG_OF_PERICENTER": 261.0281, "MEAN_ANOMALY": 98.863, "EPHEMERIS_TYPE": 0, "CLASSIFICATION_TYPE": "U", "NORAD_CAT_ID": 39418, "ELEMENT_SET_NO": 999, "REV_AT_EPOCH": 65930, "BSTAR": 0.00032593462, "MEAN_MOTION_DOT": 5.487e-05, "MEAN_MOTION_DDOT": 0}, "tle": {"line1": "1 39418U 13066C   25340.12088938  .00005487  00000+0  32593-3 0  9992", "line2": "2 39418  97.4114  30.5310 0020492 261.0281  98.8630 15.11528504659301"}}, "geometry": {"type": "Point", "coordinates": [29.794233687980356, 10.486023956873598]}}, {"type": "Feature", "properties": {"norad_id": 39419, "name": "DUBAISAT-2", "group": "resource", "lat": -41.787561482671926, "lon": 144.66593692046644, "alt_km": 552.1080555182652, "timestamp": "2025-12-06T18:50:09.827831+00:00", "meta": {"OBJECT_NAME": "DUBAISAT-2", "OBJECT_ID": "2013-066D", "EPOCH": "2025-12-06T03:31:24.066912", "MEAN_MOTION": 15.08256531, "ECCENTRICITY": 0.00111603, "INCLINATION": 97.4437, "RA_OF_ASC_NODE": 330.7579, "ARG_OF_PERICENTER": 345.2267, "MEAN_ANOMALY": 14.8634, "EPHEMERIS_TYPE": 0, "CLASSIFICATION_TYPE": "U", "NORAD_CAT_ID": 39419, "ELEMENT_SET_NO": 999, "REV_AT_EPOCH": 65727, "BSTAR": 0.0004914903, "MEAN_MOTION_DOT": 7.566e-05, "MEAN_MOTION_DDOT": 0}, "tle": {"line1": "1 39419U 13066D   25340.14680633  .00007566  00000+0  49149-3 0  9990", "line2": "2 39419  97.4437 330.7579 0011160 345.2267  14.8634 15.08256531657273"}}, "geometry": {"type": "Point", "coordinates": [144.66593692046644, -41.787561482671926]}}]}